[{"OBJECT_NAME":"STARLINK-34959","OBJECT_ID":"2025-179M","EPOCH":"2026-03-09T16:38:13.453728","MEAN_MOTION":15.05647685,"ECCENTRICITY":5.195e-5,"INCLINATION":97.6022,"RA_OF_ASC_NODE":112.8869,"ARG_OF_PERICENTER":150.1966,"MEAN_ANOMALY":209.9291,"EPHEMERIS_TYPE":0,"CLASSIFICATION_TYPE":"U","NORAD_CAT_ID":65246,"ELEMENT_SET_NO":999,"REV_AT_EPOCH":3182,"BSTAR":8.6911505e-5,"MEAN_MOTION_DOT":1.193e-5,"MEAN_MOTION_DDOT":0},{"OBJECT_NAME":"FENGYUN 1C DEB","OBJECT_ID":"1999-025XU","EPOCH":"2026-03-09T14:41:45.749184","MEAN_MOTION":14.51911005,"ECCENTRICITY":0.0242057,"INCLINATION":98.7565,"RA_OF_ASC_NODE":289.113,"ARG_OF_PERICENTER":5.0676,"MEAN_ANOMALY":56.028,"EPHEMERIS_TYPE":0,"CLASSIFICATION_TYPE":"U","NORAD_CAT_ID":30259,"ELEMENT_SET_NO":999,"REV_AT_EPOCH":734,"BSTAR":0.00035048,"MEAN_MOTION_DOT":2.01e-5,"MEAN_MOTION_DDOT":0}]
